SAUS70 KWBC 080218 RRF
METAR
KECS 080215Z AUTO 18003KT 10SM CLR M04/M14 A3006 RMK AO2=
KEDJ 080215Z AUTO 00000KT 7SM 07/06 A3033 RMK A01=
KEFK 080215Z AUTO 32003KT 10SM OVC011 08/08 A3007 RMK AO2
     T00780075=
KF05 080215Z AUTO 12003KT 4SM SCT004 BKN019 OVC028 10/10 A3020 RMK
     AO2 T01030101=
KF46 080215Z AUTO 03004KT 7SM SCT043 OVC060 18/18 A3015 RMK AO2
     T01840184=
KF70 080215Z AUTO 13003KT 10SM SCT049 09/05 A3023 RMK AO2=
KFFM 080215Z AUTO 14006KT 10SM CLR M16/M19 A3039 RMK AO2=
KFKA 080215Z AUTO 02006KT 10SM CLR M09/M11 A3040 RMK AO2
     T10911112=
KFKN 080215Z AUTO 28004KT 10SM OVC007 18/17 A3020 RMK AO2
     T01750167=
KFPK 080215Z AUTO 28006KT 10SM BKN018 OVC024 05/02 A3033 RMK AO2
     T00500015=
KFSE 080215Z AUTO 15007KT 10SM CLR M17/M24 A3034 RMK AO2=
KFSO 080215Z AUTO 29007KT 5SM BR OVC004 06/06 A3012 RMK AO2
     T00610055=
KGAF 080215Z AUTO 17011KT 10SM CLR M21/M25 A3033 RMK AO2=
KGDB 080215Z AUTO 00000KT 10SM CLR M16/M17 A3046 RMK AO2
     T11581175=
KGHW 080215Z AUTO 13003KT 10SM CLR M17/M19 A3042 RMK AO2=
KGYB 080215Z AUTO 16005KT 10SM SCT060 22/20 A3018 RMK AO2
     T02210198=
KGYL 080215Z AUTO 00000KT 7SM CLR M15/M17 A3044 RMK AO2
     T11551172=
KHAF 080215Z AUTO 9SM CLR 07/07 A3025 RMK AO2=
KHAI 080215Z AUTO 31008KT 10SM OVC018 05/02 A3035 RMK AO2
     T00500023=
KHYW 080215Z AUTO 00000KT 10SM CLR 17/16 A3024 RMK AO2=
KHZL 080215Z AUTO 27003KT 1/4SM FG OVC002 09/09 A3019 RMK AO2=
KHZX 080215Z AUTO 00000KT 10SM CLR M20/M21 A3043 RMK AO2=
KI19 080215Z AUTO 01006KT 7SM OVC010 07/07 A3032 RMK AO2=
K04W 080215Z AUTO 00000KT 10SM CLR M19/M20 A3046 RMK AO2=
K0CO 080215Z AUTO 18015G19KT 7SM -SN SCT004 SCT011 SCT020 M09/M10
     A3013 RMK AO2=
K14Y 080215Z AUTO 00000KT 10SM M20/M22 A3041 RMK AO2=
K1A9 080215Z AUTO 00000KT 10SM CLR 16/15 A3027 RMK AO2
     T01590152=
K1K1 080215Z AUTO 00000KT 10SM OVC009 06/04 A3026 RMK AO2
     T00550038=
K1V6 080215Z AUTO 09004KT 10SM CLR 05/M04 A3009 RMK AO2=
K21D 080215Z AUTO 00000KT 10SM CLR M16/M17 A3048 RMK AO2=
K22N 080215Z AUTO 00000KT 2 1/2SM BR SCT018 OVC065 10/08 A3017 RMK
     AO2=
K3AU 080215Z AUTO 36005KT 10SM OVC011 06/05 A3026 RMK AO2=
K3LF 080215Z AUTO 00000KT 3SM BR SCT100 03/03 A3036 RMK AO2
     T00310030=
K3N8 080215Z AUTO 14006KT 10SM CLR M18/M22 A3036 RMK AO2
     T11781221=
K66R 080215Z AUTO 15003KT 10SM SCT011 21/20 A3020 RMK AO2
     T02130203=
K6A2 080215Z AUTO 00000KT 10SM CLR 18/17 A3030 RMK AO2=
K6B0 080215Z AUTO 33004KT 10SM SCT018 OVC033 08/08 A3008 RMK AO2
     T00840084=
KAAS 080215Z AUTO 03003KT 5SM OVC005 11/10 A3034 RMK AO1=
KACQ 080215Z AUTO 05004KT 10SM CLR M11/M13 A3044 RMK AO2=
KAEJ 080215Z AUTO 21003KT 10SM M01/M03 A3010 RMK AO2 T10111034=
KAEL 080215Z AUTO 00000KT 10SM CLR M11/M12 A3042 RMK AO2=
KAIG 080215Z AUTO 00000KT 10SM OVC015 M10/M12 A3039 RMK AO2
     T10961118=
KAIT 080215Z AUTO 00000KT 10SM CLR M22/M23 A3043 RMK AO2=
KARM 080215Z AUTO 15008KT 10SM OVC009 22/22 A3019 RMK AO2
     T02160216 TSNO=
KASJ 080215Z AUTO 00000KT 4SM BR SCT005 SCT025 BKN031 17/17 A3020
     RMK AO2 T01650165=
KATA 080215Z AUTO 00000KT 9SM CLR 17/17 A3017 RMK AO2 SLP114
     T01700170 $=
KAXH 080215Z AUTO 00000KT 5SM BR BKN005 BKN021 22/21 A3021 RMK AO2
     T02160208=
KAXS 080215Z AUTO 00000KT 4SM BR OVC005 10/09 A3020 RMK AO2
     T00960085=
KAXV 080215Z AUTO 00000KT 7SM OVC019 06/05 A3033 RMK AO2=
KBAM 080215Z AUTO 14006KT 10SM CLR M01/M03 A3016 RMK AO1=
KBJI 080215Z AUTO 00000KT 10SM CLR M20/M25 A3036 RMK AO2
     T11971247=
KBKD 080215Z AUTO 35004KT 7SM OVC009 16/12 A3017 RMK AO2
     T01620123=
