SAPA31 KWBC 080300 RRA
METAR
AYPY 080300Z 21008KT 9999 SCT020 BKN040 28/26 Q1006 RMK/DISTANT
     SHRA TO SE=
PGUA 080255Z AUTO 12012KT 10SM BKN014 BKN023 29/25 A2981 RMK AO2
     CIG 012 RWY24L SLP085 60000 T02900245 57017 $=
PGWT 080259Z 11012KT 7SM VCSH SCT016 30/25 RMK VCSH NE=
PKWA 080300Z COR 07012KT 10SM SCT019 SCT024 SCT034 29/24 A2972 RMK
     AO2 T02880244=
expected '=' at COR 07012KT 10SM SCT019 SCT024 SCT034 29/24 A2972 RMK
ERROR - Failed to parse METAR report:
SACA32 KWBC 080300 RRA
METAR
TAPA 080300Z 36005KT 330V030 9999 BKN018 25/18 Q1013 NOSIG=
expected '=' at V030 9999 BKN018 25/18 Q1013 NOSIG=
ERROR - Failed to parse METAR report:
SASA31 KWBC 080300 RRA
METAR
SKSP 080300Z 06010KT 9999 SCT016TCU 28/23 Q1015 RMK TCUNW
     A2998=
SVBC 080303Z AUTO 01006KT NCD 26/22 Q1014=
SVMC 080303Z AUTO 05006KT NCD 26/22 Q1014=
SVMG 080303Z AUTO 32007KT NCD 18/23 Q1014=
SVMI 080303Z AUTO 00000KT NCD ///// Q////=
