SAUS80 KWBC 080040
METAR
K9MN 080035Z AUTO 35003KT 10SM CLR M08/M12 A3042 RMK AO1
     T10761121=
KEDU 080035Z AUTO 16005KT 10SM CLR 12/07 A3023 RMK AO1=
KGNG 080035Z AUTO 11011KT 10SM CLR M02/M02 A3019 RMK AO2=
KIKW 080035Z AUTO 00000KT 10SM BKN017 BKN023 OVC036 03/02 A3029
     RMK AO2 T00330020=
KS39 080035Z AUTO 14006KT 10SM CLR 01/M06 A3005 RMK AO2=
KSEP 080035Z AUTO 04004KT 4SM BKN034 OVC045 20/19 A3016 RMK AO2
     T01970185=
KRLD 080035Z AUTO 31004KT 10SM OVC008 M01/M02 A3022 RMK AO2
     T10071016=
KLYV 080035Z AUTO 00000KT 10SM SCT010 BKN014 M09/M11 A3039 RMK
     AO2=
KPOV 080035Z AUTO 30004KT 2 1/2SM OVC002 07/05 A3026 RMK AO2
     T00650053 PWINO=
KSYN 080035Z AUTO 03005KT 10SM CLR M12/M15 A3044 RMK AO2
     T11201149=
KTKC 080035Z AUTO 00000KT 10SM CLR M12/M12 A3040 RMK AO2=
KVTI 080035Z AUTO 03009KT 10SM CLR M02/M04 A3038 RMK AO2
     T10211045=
KRFI 080035Z AUTO 00000KT 10SM CLR 22/16 A3019 RMK AO2
     T02160156=
KSOW 080035Z AUTO 19018G25KT 10SM FEW046 05/M00 A3015 RMK AO2=
KSVE 080035Z AUTO 00000KT 10SM CLR A3017 RMK AO2=
KCIR 080035Z AUTO 08004KT 10SM OVC011 12/10 A3031 RMK AO2
     T01150096=
K9MN 080035Z AUTO 35003KT 10SM CLR M08/M12 A3042 RMK AO1
     T10761121=
KS39 080035Z AUTO 14006KT 10SM CLR 01/M06 A3005 RMK AO2=
KEDU 080035Z AUTO 16005KT 10SM CLR 12/07 A3023 RMK AO1=
KRLD 080035Z AUTO 31004KT 10SM OVC008 M01/M02 A3022 RMK AO2
     T10071016=
KIKW 080035Z AUTO 00000KT 10SM BKN017 BKN023 OVC036 03/02 A3029
     RMK AO2 T00330020=
K2I0 080035Z AUTO 04006KT 5SM BR OVC006 11/09 A3031 RMK AO2
     T01100090=
K40U 080035Z AUTO 25005KT 10SM SCT090 BKN110 M06/M10 A3011 RMK AO2
     T10631099=
K48A 080035Z AUTO 00000KT 10SM SCT033 SCT039 BKN060 20/18 A3028
     RMK AO2 T01960184=
K4BM 080035Z AUTO 15006KT 10SM SCT027 SCT035 BKN041 M04/M08 A3017
     RMK AO2=
