SAUS70 KWBC 080608
METAR
KEVM 080603Z AUTO 00000KT 10SM CLR M27/M30 A3040 RMK AO2=
KCLK 080615Z AUTO 00000KT 1 3/4SM -RA BKN003 OVC009 07/07 A3020
     RMK AO2 P0001=
KFRR 080615Z AUTO 00000KT 1/2SM OVC001 07/07 A3021 RMK AO1=
KHHW 080602Z AUTO 26004KT 1/4SM FG OVC002 13/13 A3015 RMK AO2=
KJXI 080615Z AUTO 16005KT 10SM SCT070 21/17 A3016 RMK AO2
     T02050174=
KTGI 080615Z AUTO 33009KT 1/2SM OVC004 13/13 A3016 RMK AO1
     T01310130=
KVNW 080615Z AUTO 00000KT 7SM OVC021 05/03 A3036 RMK AO2=
KW99 080604Z AUTO 34003KT 10SM BKN034 14/11 A3023 RMK AO2=
KGNT 080555Z AUTO 00000KT 10SM SCT033 SCT060 SCT075 01/M03 A3026
     RMK AO2 T00091027 10031 21020=
K8D3 080556Z AUTO 14009KT M15/ A3032 RMK AO1 SLP315 T1150 11150
     21194 411331194 56014 $=
KP58 080555Z AUTO 34007G16KT 03/01 A3033 RMK AO1 SLP278 T00280011
     10044 20028 53010=
KLZZ 080555Z AUTO 18008KT 10SM OVC014 20/19 A3016 RMK AO2
     T02030185 10212 20188 402560188=
KNY0 080559Z AUTO 31011G15KT 10SM BKN010 OVC037 05/05 A3017 RMK
     AO2=
NZSP 081950Z 01009KT 4000 -SG BR FEW020 OVC050 M28/ A2855 RMK CLN AIR 36010KT ALL WNDS GRID SDF/HDF=
PHSF 081958Z AUTO 14028G38KT 6SM HZ CLR 15/07 A3036 RMK AO2 PK WND 15040/44 SLP172 T01520073 $=
