SAMH31 PKMJ 070700
METAR PKMJ 070655Z 06011KT 15SM FEW015 SCT050 BKN300 30/25 A2979
